{
    "links": {
        "self": "http://www.neowsapp.com/rest/v1/neo/3733855?api_key=iIulBulltgU6a56xZRHN4H3l9WmuAYTsLGpBGhQ2"
    },
    "id": "3733855",
    "neo_reference_id": "3733855",
    "name": "(2015 VN64)",
    "designation": "2015 VN64",
    "nasa_jpl_url": "http://ssd.jpl.nasa.gov/sbdb.cgi?sstr=3733855",
    "absolute_magnitude_h": 27.5,
    "estimated_diameter": {
        "kilometers": {
            "estimated_diameter_min": 0.008405334,
            "estimated_diameter_max": 0.0187948982
        },
        "meters": {
            "estimated_diameter_min": 8.4053340207,
            "estimated_diameter_max": 18.7948982439
        },
        "miles": {
            "estimated_diameter_min": 0.0052228308,
            "estimated_diameter_max": 0.0116786047
        },
        "feet": {
            "estimated_diameter_min": 27.5765560686,
            "estimated_diameter_max": 61.6630539546
        }
    },
    "is_potentially_hazardous_asteroid": false,
    "close_approach_data": [
        {
            "close_approach_date": "1952-05-24",
            "close_approach_date_full": "1952-May-24 08:14",
            "epoch_date_close_approach": -555608760000,
            "relative_velocity": {
                "kilometers_per_second": "23.757389738",
                "kilometers_per_hour": "85526.6030566981",
                "miles_per_hour": "53142.9051048689"
            },
            "miss_distance": {
                "astronomical": "0.2723834361",
                "lunar": "105.9571566429",
                "kilometers": "40747981.863841107",
                "miles": "25319621.8437249966"
            },
            "orbiting_body": "Earth"
        },
        {
            "close_approach_date": "2015-11-03",
            "close_approach_date_full": "2015-Nov-03 17:40",
            "epoch_date_close_approach": 1446572400000,
            "relative_velocity": {
                "kilometers_per_second": "15.8229891255",
                "kilometers_per_hour": "56962.7608516326",
                "miles_per_hour": "35394.4443747269"
            },
            "miss_distance": {
                "astronomical": "0.0042205902",
                "lunar": "1.6418095878",
                "kilometers": "631391.304062874",
                "miles": "392328.3638367012"
            },
            "orbiting_body": "Earth"
        },
        {
            "close_approach_date": "2015-11-03",
            "close_approach_date_full": "2015-Nov-03 18:38",
            "epoch_date_close_approach": 1446575880000,
            "relative_velocity": {
                "kilometers_per_second": "16.7905920039",
                "kilometers_per_hour": "60446.1312142164",
                "miles_per_hour": "37558.8752536335"
            },
            "miss_distance": {
                "astronomical": "0.0029155015",
                "lunar": "1.1341300835",
                "kilometers": "436152.814381805",
                "miles": "271012.791826709"
            },
            "orbiting_body": "Moon"
        }
    ],
    "orbital_data": {
        "orbit_id": "6",
        "orbit_determination_date": "2017-04-06 08:30:53",
        "first_observation_date": "2015-11-07",
        "last_observation_date": "2015-11-13",
        "data_arc_in_days": 6,
        "observations_used": 22,
        "orbit_uncertainty": "8",
        "minimum_orbit_intersection": ".00265851",
        "jupiter_tisserand_invariant": "3.783",
        "epoch_osculation": "2457335.5",
        "eccentricity": ".5912736754654129",
        "semi_major_axis": "1.841365991317055",
        "inclination": "3.639199400269444",
        "ascending_node_longitude": "223.3843691097771",
        "orbital_period": "912.6591317407554",
        "perihelion_distance": ".7526147537540064",
        "perihelion_argument": "108.1084573707161",
        "aphelion_distance": "2.930117228880104",
        "perihelion_time": "2457285.812327782367",
        "mean_anomaly": "19.59938971325487",
        "mean_motion": ".3944517591286859",
        "equinox": "J2000",
        "orbit_class": {
            "orbit_class_type": "APO",
            "orbit_class_description": "Near-Earth asteroid orbits which cross the Earth’s orbit similar to that of 1862 Apollo",
            "orbit_class_range": "a (semi-major axis) > 1.0 AU; q (perihelion) < 1.017 AU"
        }
    },
    "is_sentry_object": false
}